NORAD_CAT_ID,OBJECT_NAME,OBJECT_TYPE,EPOCH,MEAN_MOTION,ECCENTRICITY,INCLINATION,RA_OF_ASC_NODE,ARG_OF_PERICENTER,MEAN_ANOMALY,BSTAR,MEAN_MOTION_DOT,MEAN_MOTION_DDOT,TLE_LINE0,TLE_LINE1,TLE_LINE2,SEMIMAJOR_AXIS,PERIOD,APOGEE,PERIGEE,DECAYED
53430.0,STARLINK-4538,PAYLOAD,2024-07-15 12:05:17,15.08838977,0.0001382,53.2176,287.4761,74.592,285.5225,-6.7814e-06,-3.96e-06,0.0,0 STARLINK-4538,1 53430U 22097AU  24197.50366936 -.00000396  00000-0 -67814-5 0  9997,2 53430  53.2176 287.4761 0001382  74.5920 285.5225 15.08838977107392,6917.884,95.438,540.705,538.792,0.0
53430.0,STARLINK-4538,PAYLOAD,2024-07-15 13:40:39,15.08838378,0.0001362,53.2163,287.1803,78.992,281.1225,-1.7066e-05,-5.59e-06,0.0,0 STARLINK-4538,1 53430U 22097AU  24197.56990411 -.00000559  00000-0 -17066-4 0  9998,2 53430  53.2163 287.1803 0001362  78.9920 281.1225 15.08838378107867,6917.885,95.438,540.693,538.808,0.0
53430.0,STARLINK-4538,PAYLOAD,2024-07-15 15:16:02,15.08846615,0.0001186,53.2167,286.8813,86.8068,273.306,5.7917e-05,6.34e-06,0.0,0 STARLINK-4538,1 53430U 22097AU  24197.63613906  .00000634  00000-0  57917-4 0  9998,2 53430  53.2167 286.8813 0001186  86.8068 273.3060 15.08846615107417,6917.86,95.437,540.546,538.905,0.0
53430.0,STARLINK-4538,PAYLOAD,2024-07-16 05:34:31,15.08831326,0.0001438,53.2154,284.2103,87.222,272.8936,-2.8938e-05,-7.48e-06,0.0,0 STARLINK-4538,1 53430U 22097AU  24198.23230753 -.00000748  00000-0 -28938-4 0  9999,2 53430  53.2154 284.2103 0001438  87.2220 272.8936 15.08831326107501,6917.907,95.438,540.767,538.777,0.0
53430.0,STARLINK-4538,PAYLOAD,2024-07-16 13:31:26,15.0883911,0.0001402,53.2163,282.719,92.5335,267.5818,-4.4953e-05,-1.003e-05,0.0,0 STARLINK-4538,1 53430U 22097AU  24198.56350364 -.00001003  00000-0 -44953-4 0  9996,2 53430  53.2163 282.7190 0001402  92.5335 267.5818 15.08839110108013,6917.883,95.438,540.718,538.778,0.0
53430.0,STARLINK-4538,PAYLOAD,2024-07-17 11:46:50,15.08841256,0.0001312,53.2169,278.5581,81.2804,278.8337,0.00015795,2.227e-05,0.0,0 STARLINK-4538,1 53430U 22097AU  24199.49086634  .00002227  00000-0  15795-3 0  9993,2 53430  53.2169 278.5581 0001312  81.2804 278.8337 15.08841256108152,6917.877,95.437,540.649,538.834,0.0
53430.0,STARLINK-4538,PAYLOAD,2024-07-18 05:16:05,15.08837653,0.0001982,53.2157,275.2907,75.6839,284.4373,0.00021465,3.129e-05,0.0,0 STARLINK-4538,1 53430U 22097AU  24200.21951237  .00003129  00000-0  21465-3 0  9999,2 53430  53.2157 275.2907 0001982  75.6839 284.4373 15.08837653107803,6917.888,95.438,541.124,538.381,0.0
53430.0,STARLINK-4538,PAYLOAD,2024-07-18 11:37:38,15.08834989,0.0001375,53.2168,274.0993,87.954,272.1609,0.00015138,2.122e-05,0.0,0 STARLINK-4538,1 53430U 22097AU  24200.48447319  .00002122  00000-0  15138-3 0  9991,2 53430  53.2168 274.0993 0001375  87.9540 272.1609 15.08834989108309,6917.896,95.438,540.712,538.809,0.0
53430.0,STARLINK-4538,PAYLOAD,2024-07-19 11:28:25,15.08845109,0.0001373,53.2167,269.6372,81.4075,278.7073,0.00026255,3.894e-05,0.0,0 STARLINK-4538,1 53430U 22097AU  24201.47807121  .00003894  00000-0  26255-3 0  9991,2 53430  53.2167 269.6372 0001373  81.4075 278.7073 15.08845109107996,6917.865,95.437,540.68,538.78,0.0
53430.0,STARLINK-4538,PAYLOAD,2024-07-19 21:00:44,15.08843652,0.0001422,53.2167,267.8549,85.2995,274.8159,0.00020342,2.951e-05,0.0,0 STARLINK-4538,1 53430U 22097AU  24201.87551132  .00002951  00000-0  20342-3 0  9997,2 53430  53.2167 267.8549 0001422  85.2995 274.8159 15.08843652108512,6917.869,95.437,540.718,538.751,0.0
53430.0,STARLINK-4538,PAYLOAD,2024-07-20 04:57:40,15.08833823,0.0001393,53.2177,266.3683,85.547,274.5681,0.00010902,1.447e-05,0.0,0 STARLINK-4538,1 53430U 22097AU  24202.20671569  .00001447  00000-0  10902-3 0  9992,2 53430  53.2177 266.3683 0001393  85.5470 274.5681 15.08833823108105,6917.899,95.438,540.728,538.801,0.0
53430.0,STARLINK-4538,PAYLOAD,2024-07-20 11:19:12,15.08836101,0.0001408,53.2166,265.1827,89.2191,270.8962,0.00012394,1.685e-05,0.0,0 STARLINK-4538,1 53430U 22097AU  24202.47167539  .00001685  00000-0  12394-3 0  9999,2 53430  53.2166 265.1827 0001408  89.2191 270.8962 15.08836101108606,6917.892,95.438,540.731,538.783,0.0
53430.0,STARLINK-4538,PAYLOAD,2024-07-20 20:51:30,15.08852891,0.0001463,53.217,263.3968,98.2311,261.8847,0.00024333,3.588e-05,0.0,0 STARLINK-4538,1 53430U 22097AU  24202.86910541  .00003588  00000-0  24333-3 0  9991,2 53430  53.2170 263.3968 0001463  98.2311 261.8847 15.08852891108204,6917.841,95.437,540.718,538.694,0.0
53430.0,STARLINK-4538,PAYLOAD,2024-07-21 04:48:27,15.08840489,0.000223,53.217,261.9137,109.1722,250.9512,7.8435e-05,9.6e-06,0.0,0 STARLINK-4538,1 53430U 22097AU  24203.20031274  .00000960  00000-0  78435-4 0  9991,2 53430  53.2170 261.9137 0002230 109.1722 250.9512 15.08840489108250,6917.879,95.438,541.287,538.201,0.0
53430.0,STARLINK-4538,PAYLOAD,2024-07-21 09:34:36,15.0883268,0.000162,53.2167,261.0193,102.8386,257.2787,-5.763e-05,-1.205e-05,0.0,0 STARLINK-4538,1 53430U 22097AU  24203.39903617 -.00001205  00000-0 -57630-4 0  9999,2 53430  53.2167 261.0193 0001620 102.8386 257.2787 15.08832680108288,6917.903,95.438,540.888,538.647,0.0
53430.0,STARLINK-4538,PAYLOAD,2024-07-22 12:36:09,15.0884378,0.0001554,53.2159,255.9622,103.5461,256.5704,0.00013641,1.884e-05,0.0,0 STARLINK-4538,1 53430U 22097AU  24204.52511332  .00001884  00000-0  13641-3 0  9998,2 53430  53.2159 255.9622 0001554 103.5461 256.5704 15.08843780108459,6917.869,95.437,540.809,538.659,0.0
53430.0,STARLINK-4538,PAYLOAD,2024-07-23 09:16:10,15.08846723,0.0001568,53.2155,252.0921,93.7573,266.3599,0.00032312,4.859e-05,0.0,0 STARLINK-4538,1 53430U 22097AU  24205.38623319  .00004859  00000-0  32312-3 0  9993,2 53430  53.2155 252.0921 0001568  93.7573 266.3599 15.08846723109041,6917.86,95.437,540.81,538.64,0.0
53430.0,STARLINK-4538,PAYLOAD,2024-07-24 02:45:25,15.08843789,0.0001491,53.2143,248.8237,86.0048,274.1114,6.6543e-05,7.71e-06,0.0,0 STARLINK-4538,1 53430U 22097AU  24206.11487305  .00000771  00000-0  66543-4 0  9991,2 53430  53.2143 248.8237 0001491  86.0048 274.1114 15.08843789108697,6917.869,95.437,540.765,538.702,0.0
53430.0,STARLINK-4538,PAYLOAD,2024-07-24 09:06:57,15.08838409,0.000143,53.2148,247.6311,91.4443,268.6712,-1.7824e-05,-5.72e-06,0.0,0 STARLINK-4538,1 53430U 22097AU  24206.37983636 -.00000572  00000-0 -17824-4 0  9996,2 53430  53.2148 247.6311 0001430  91.4443 268.6712 15.08838409109195,6917.885,95.438,540.74,538.761,0.0
53430.0,STARLINK-4538,PAYLOAD,2024-07-25 05:46:58,15.088431,0.0001341,53.2151,243.7641,92.7885,267.3261,0.0001028,1.349e-05,0.0,0 STARLINK-4538,1 53430U 22097AU  24207.24095345  .00001349  00000-0  10280-3 0  9993,2 53430  53.2151 243.7641 0001341  92.7885 267.3261 15.08843100109321,6917.871,95.437,540.664,538.808,0.0
53430.0,STARLINK-4538,PAYLOAD,2024-07-25 12:08:30,15.08846271,0.0001425,53.2157,242.5751,94.7816,265.3339,0.00011945,1.614e-05,0.0,0 STARLINK-4538,1 53430U 22097AU  24207.50591050  .00001614  00000-0  11945-3 0  9990,2 53430  53.2157 242.5751 0001425  94.7816 265.3339 15.08846271108904,6917.861,95.437,540.712,538.74,0.0
53430.0,STARLINK-4538,PAYLOAD,2024-07-26 05:37:45,15.08840772,0.0001388,53.2161,239.3033,99.0962,261.0187,0.00010792,1.43e-05,0.0,0 STARLINK-4538,1 53430U 22097AU  24208.23455251  .00001430  00000-0  10792-3 0  9998,2 53430  53.2161 239.3033 0001388  99.0962 261.0187 15.08840772109011,6917.878,95.438,540.703,538.783,0.0
53430.0,STARLINK-4538,PAYLOAD,2024-07-26 08:48:31,15.08840045,0.0001343,53.2157,238.7087,95.3928,264.7217,0.00010074,1.316e-05,0.0,0 STARLINK-4538,1 53430U 22097AU  24208.36703321  .00001316  00000-0  10074-3 0  9992,2 53430  53.2157 238.7087 0001343  95.3928 264.7217 15.08840045109499,6917.88,95.438,540.674,538.816,0.0
53430.0,STARLINK-4538,PAYLOAD,2024-07-27 05:28:32,15.08841812,0.0001359,53.2153,234.8428,97.0468,263.0679,2.6192e-05,1.29e-06,0.0,0 STARLINK-4538,1 53430U 22097AU  24209.22815330  .00000129  00000-0  26192-4 0  9992,2 53430  53.2153 234.8428 0001359  97.0468 263.0679 15.08841812109628,6917.875,95.437,540.68,538.8,0.0
53430.0,STARLINK-4538,PAYLOAD,2024-07-27 07:03:55,15.08841589,0.0001355,53.2154,234.5454,96.8106,263.304,2.0164e-05,3.3e-07,0.0,0 STARLINK-4538,1 53430U 22097AU  24209.29439325  .00000033  00000-0  20164-4 0  9992,2 53430  53.2154 234.5454 0001355  96.8106 263.3040 15.08841589109173,6917.876,95.437,540.678,538.803,0.0
53430.0,STARLINK-4538,PAYLOAD,2024-07-28 05:19:17,15.08860171,0.0001414,53.2148,230.3831,124.072,236.0407,0.00022511,3.298e-05,0.0,0 STARLINK-4538,1 53430U 22097AU  24210.22172761  .00003298  00000-0  22511-3 0  9998,2 53430  53.2148 230.3831 0001414 124.0720 236.0407 15.08860171109319,6917.819,95.436,540.662,538.706,0.0
53430.0,STARLINK-4538,PAYLOAD,2024-07-28 13:16:48,15.08415511,0.0002116,53.215,228.8984,136.1016,224.0144,-0.00346,-0.00054309,0.0,0 STARLINK-4538,1 53430U 22097AU  24210.55334392 -.00054309  00000-0 -34600-2 0  9996,2 53430  53.2150 228.8984 0002116 136.1016 224.0144 15.08415511109369,6919.178,95.464,542.507,539.579,0.0
53430.0,STARLINK-4538,PAYLOAD,2024-07-28 19:38:29,15.0837198,0.0001358,53.215,227.7106,96.6284,263.4863,-0.0036007,-0.0005642,0.0,0 STARLINK-4538,1 53430U 22097AU  24210.81840084 -.00056420  00000-0 -36007-2 0  9994,2 53430  53.2150 227.7106 0001358  96.6284 263.4863 15.08371980109408,6919.311,95.467,542.116,540.237,0.0
53430.0,STARLINK-4538,PAYLOAD,2024-07-29 05:10:59,15.08343156,0.000121,53.2152,225.9296,102.4052,257.7075,-0.0036553,-0.00057219,0.0,0 STARLINK-4538,1 53430U 22097AU  24211.21596447 -.00057219  00000-0 -36553-2 0  9993,2 53430  53.2152 225.9296 0001210 102.4052 257.7075 15.08343156109467,6919.399,95.469,542.102,540.427,0.0
53430.0,STARLINK-4538,PAYLOAD,2024-07-29 08:21:49,15.08330511,0.0001257,53.2154,225.3346,107.6694,252.4435,-0.0036414,-0.00056985,0.0,0 STARLINK-4538,1 53430U 22097AU  24211.34848790 -.00056985  00000-0 -36414-2 0  9993,2 53430  53.2154 225.3346 0001257 107.6694 252.4435 15.08330511109945,6919.438,95.47,542.173,540.433,0.0
